HORYU-4                 
1 41340U 16012D   19358.72461364  .00000405  00000-0  23901-4 0  9999
2 41340  31.0063  10.7891 0013929 204.5760 155.4213 15.01382410211449
E-ST@R-II               
1 41459U 16025D   19359.54051708  .00001398  00000-0  74156-4 0  9992
2 41459  98.1008  95.6095 0167590  80.4899 281.5185 15.05943975201114
AAUSAT 4                
1 41460U 16025E   19359.53413862  .00001478  00000-0  76325-4 0  9995
2 41460  98.0990  97.3577 0157126  71.2357 290.5830 15.08030591201278
DIWATA-1                
1 41463U 98067HT  19359.37719132  .00049931  12187-4  14350-3 0  9993
2 41463  51.6245 334.7289 0002472  87.1528  65.1888 15.93687206209885
BEESAT-4                
1 41619U 16040W   19358.89426323  .00001107  00000-0  49135-4 0  9990
2 41619  97.3451  57.3847 0012853  80.2833 279.9855 15.23561425182661
CANX-7                  
1 41788U 16059F   19359.47476436  .00004881  00000-0  71106-3 0  9996
2 41788  98.2514  78.2799 0031461 139.0811 221.2752 14.75989088173987
RAVAN                   
1 41849U 16067B   19358.85632468  .00000253  00000-0  26390-4 0  9998
2 41849  97.9281 100.8798 0010135 105.6217 254.6124 14.98413379170325
CELTEE 1                
1 41850U 16067C   19358.82787130  .00000562  00000-0  53964-4 0  9994
2 41850  97.9215  99.0718 0010331 111.8494 248.3826 14.97095014170228
OPTICUBE 04             
1 41851U 16067D   19358.86321859 -.00000485  00000-0 -36992-4 0  9999
2 41851  97.9211  98.8165 0010023 111.7688 248.4601 14.96866842170215
AEROCUBE 8D             
1 41852U 16067E   19358.87535937 -.00000006  00000-0  48055-5 0  9997
2 41852  97.9214  98.6563 0010724 113.6376 246.5972 14.96810296170191
AEROCUBE 8C             
1 41853U 16067F   19358.83595444  .00000764  00000-0  72040-4 0  9993
2 41853  97.9220  98.5367 0011583 114.1083 246.1351 14.96778757170186
PROMETHEUS 2-1          
1 41854U 16067G   19358.83996468  .00000862  00000-0  79995-4 0  9990
2 41854  97.9231  98.7665 0011929 113.3439 246.9039 14.97047797170198
PROMETHEUS 2-3          
1 41855U 16067H   19358.84152633  .00000840  00000-0  78114-4 0  9998
2 41855  97.9233  98.7919 0012084 113.6784 246.5706 14.97056616170199
INS-1B                  
1 41954U 17008G   19358.90546455  .00001064  00000-0  46346-4 0  9991
2 41954  97.3787  61.2670 0008809 189.6760 170.4309 15.24357120158626
BGUSAT                  
1 41999U 17008BD  19359.45862662  .00001760  00000-0  69598-4 0  9999
2 41999  97.3878  65.0395 0007579 197.6817 162.4159 15.26795241158241
DIDO-2                  
1 42000U 17008BE  19358.90722564  .00000728  00000-0  32759-4 0  9990
2 42000  97.3798  61.8159 0007634 208.5734 151.5086 15.24190467158021
PEASSS                  
1 42015U 17008BV  19358.74732748  .00000979  00000-0  41789-4 0  9994
2 42015  97.3814  62.9262 0005404 210.6886 149.4036 15.25232134158567
AL-FARABI 1             
1 42016U 17008BW  19358.85901370  .00001242  00000-0  51153-4 0  9996
2 42016  97.3835  63.8128 0005328 208.8830 151.2114 15.25965261158747
NAYIF-1 (EO-88)         
1 42017U 17008BX  19358.90776051  .00001233  00000-0  50753-4 0  9994
2 42017  97.3831  63.8725 0005339 208.8262 151.2682 15.26002370158775
NSIGHT                  
1 42726U 98067MF  19359.40809344  .00040526  00000-0  19369-3 0  9998
2 42726  51.6326  52.0231 0001220 209.5795 150.5139 15.82367179147736
UCLSAT                  
1 42765U 17036A   19358.83586252  .00001017  00000-0  45985-4 0  9990
2 42765  97.3274  52.5738 0009762 286.9012  73.1154 15.23125123139841
LITUANICASAT-2          
1 42768U 17036D   19358.86047356  .00001669  00000-0  72931-4 0  9997
2 42768  97.3319  52.3432 0013242 274.8287  85.1438 15.23413326139103
AALTO-1                 
1 42775U 17036L   19359.40594865  .00000594  00000-0  29331-4 0  9990
2 42775  97.3252  51.4191 0012241 275.0322  84.9516 15.21586952139052
URSA MAIOR              
1 42776U 17036M   19358.88864889  .00000668  00000-0  32475-4 0  9993
2 42776  97.3264  51.1291 0012066 276.9072  83.0791 15.21742096138980
COMPASS 2               
1 42777U 17036N   19359.46448467  .00001345  00000-0  59386-4 0  9992
2 42777  97.3312  53.3947 0010747 273.8689  86.1320 15.23395980139151
DIAMOND RED             
1 42783U 17036U   19358.88641806  .00000790  00000-0  37027-4 0  9997
2 42783  97.3273  52.0623 0010467 288.2166  71.7931 15.22510545139030
PEGASUS                 
1 42784U 17036V   19359.41825876  .00000901  00000-0  41394-4 0  9995
2 42784  97.3278  52.8983 0010322 285.2291  74.7805 15.22846720139130
DIAMOND GREEN           
1 42785U 17036W   19358.68809106  .00000799  00000-0  37405-4 0  9995
2 42785  97.3277  51.8986 0010363 289.7408  70.2710 15.22510867139075
DIAMOND BLUE            
1 42786U 17036X   19358.81870585  .00000787  00000-0  36882-4 0  9995
2 42786  97.3276  52.0228 0010210 289.5571  70.4563 15.22510404139094
NUDTSAT                 
1 42787U 17036Y   19359.15563562  .00001358  00000-0  58952-4 0  9995
2 42787  97.3318  53.6626 0010737 289.6606  70.3472 15.23981436138999
SUCHAI                  
1 42788U 17036Z   19358.84468265  .00001088  00000-0  48709-4 0  9994
2 42788  97.3285  52.7759 0009887 286.2545  73.7604 15.23325328139143
SKCUBE                  
1 42789U 17036AA  19358.80864790  .00000984  00000-0  44485-4 0  9995
2 42789  97.3281  52.6422 0009762 286.6590  73.3575 15.23197536139053
VZLUSAT-1               
1 42790U 17036AB  19358.88069804  .00001325  00000-0  57617-4 0  9999
2 42790  97.3300  53.3911 0009296 284.4315  75.5891 15.23967949139105
ROBUSTA-1B              
1 42792U 17036AD  19358.78366558  .00001031  00000-0  46260-4 0  9992
2 42792  97.3283  52.8165 0009341 287.4502  72.5713 15.23376547139078
CICERO 6                
1 42793U 17036AE  19358.89992439  .00000689  00000-0  32369-4 0  9991
2 42793  97.3261  52.5423 0008641 289.7964  70.2340 15.22853068139144
D-SAT                   
1 42794U 17036AF  19359.37774076  .00000305  00000-0  32029-4 0  9999
2 42794  97.5164  35.4871 0125247 228.7635 130.2739 14.91190993136609
CORVUS BC2              
1 42846U 17042X   19359.47483958 -.00000043  00000-0  98782-6 0  9991
2 42846  97.5446 245.6563 0010602 135.4413 224.7661 14.92040947133311
CORVUS BC1              
1 42847U 17042Y   19359.41531145  .00000014  00000-0  65896-5 0  9994
2 42847  97.5447 245.7377 0010262 134.7865 225.4190 14.92141602133306
MIRATA                  
1 43015U 17073C   19358.83021375  .00000793  00000-0  67677-4 0  9992
2 43015  97.7222 272.7099 0252899 261.3256  95.9235 14.79331397113252
MAKERSAT 0              
1 43016U 17073D   19359.48968119  .00000509  00000-0  45603-4 0  9991
2 43016  97.7258 273.5457 0255334 259.8197  97.4130 14.78989548113338
ASTERIA                 
1 43020U 98067NH  19359.45376510  .00043852  00000-0  21739-3 0  9994
2 43020  51.6409  63.9574 0001132  59.2686 300.8428 15.81542343119768
DELLINGR (RBLE)         
1 43021U 98067NJ  19359.47865489  .00007847  00000-0  79232-4 0  9991
2 43021  51.6380  91.0697 0001997 102.3278 257.7942 15.66419985119401
AEROCUBE 7B (OCSD B)    
1 43042U 17071F   19358.84704377  .00002425  00000-0  64797-4 0  9995
2 43042  51.6364 207.4302 0005277 121.2401 238.9102 15.42330212115263
AEROCUBE 7C (OCSD C)    
1 43043U 17071G   19358.84772872  .00002466  00000-0  65793-4 0  9993
2 43043  51.6364 207.4494 0005483 125.0800 235.0700 15.42309026115238
CHEFSAT                 
1 43044U 17071H   19358.85717253  .00004637  00000-0  10255-3 0  9991
2 43044  51.6372 197.9542 0005388 127.7025 232.4451 15.45865968115360
ASGARDIA 1              
1 43049U 17071N   19359.43292715  .00002257  00000-0  60785-4 0  9992
2 43049  51.6374 203.9083 0002960 136.7136 223.4083 15.42422818115328
ISARA                   
1 43050U 17071P   19359.45647827  .00003727  00000-0  86001-4 0  9996
2 43050  51.6354 196.6301 0002977 136.6572 223.4649 15.45204284115427
PROPCUBE 2 (FAUNA)      
1 43052U 17071R   19359.46503132  .00002379  00000-0  62836-4 0  9991
2 43052  51.6372 202.6420 0002939 133.7502 226.3727 15.42779268115344
CORVUS BC3              
1 43118U 18004H   19358.83242864  .00000608  00000-0  28780-4 0  9996
2 43118  97.4665  65.3605 0009132 315.3053  44.7446 15.23100173108265
MICROMAS-2A             
1 43131U 18004W   19358.86110447  .00001504  00000-0  63769-4 0  9997
2 43131  97.4701  66.5567 0008042 315.8880  44.1715 15.24677454108336
SPACEBEE-4              
1 43139U 18004AE  19358.83216714  .00002069  00000-0  83974-4 0  9993
2 43139  97.4730  67.3281 0007379 318.0720  41.9952 15.25731822108360
SPACEBEE-3              
1 43140U 18004AF  19358.86781393  .00002584  00000-0  10203-3 0  9994
2 43140  97.4743  67.8047 0007070 316.5683  43.4998 15.26428325108404
SPACEBEE-2              
1 43141U 18004AG  19358.87850656  .00002741  00000-0  10729-3 0  9993
2 43141  97.4754  67.9734 0007039 315.7657  44.3018 15.26664255108416
SPACEBEE-1              
1 43142U 18004AH  19359.47186590  .00002890  00000-0  11207-3 0  9997
2 43142  97.4754  68.7370 0006970 313.2513  46.8143 15.26940234108509
CICERO 7                
1 43143U 18004AJ  19359.46090312  .00001421  00000-0  60272-4 0  9999
2 43143  97.4683  67.3628 0006389 326.7062  33.3772 15.24776543108444
GOMX-4B                 
1 43196U 18015E   19359.52206987  .00000351  00000-0  17357-4 0  9990
2 43196  97.4158 124.7066 0019072   4.6725 355.4686 15.24098426105259
GOMX-4A                 
1 43197U 18015F   19359.43788612  .00000624  00000-0  28435-4 0  9993
2 43197  97.4146 124.6669 0019310   5.6813  67.7288 15.24243785105250
1KUNS-PF                
1 43466U 98067NP  19359.40867616  .00027713  00000-0  18197-3 0  9997
2 43466  51.6347  85.9805 0000621 315.5142  44.5808 15.75502160 92727
UBAKUSAT                
1 43467U 98067NQ  19359.51951694  .00012932  00000-0  12048-3 0  9996
2 43467  51.6361  96.5364 0001614  68.9285 291.1884 15.67748524 92600
